{"type":"FeatureCollection","features":[{"type":"Feature","properties":{"NAMOBJ":"Kerban","FCODE":"BA03070040","METADATA":"TASWIL1000020230928_DATA_BATAS_DESAKELURAHAN","SRS_ID":"SRGI 2013","KDCPUM":"33.08.11","KDEPUM":"33.08.11.2002","KDPKAB":"33.08","KDPPUM":"33","WADMKC":"Tempuran","WADMKD":"Sumberarum","WADMKK":"Magelang","WADMPR":"Jawa Tengah","DUSUN":"Kerban","Toponimi":"Dusun Kerban","Shape_Leng":3646.39056914,"Shape_Area":446268.892468,"rt":"1","rt_1":1,"F2025":158,"F2026":158,"perubahan":0,"OBJECTID_1":1},"geometry":{"type":"Polygon","coordinates":[[[110.17670486566486,-7.566310875064734],[110.17658997222416,-7.567799632810346],[110.17654798419503,-7.567959004813034],[110.17643412642889,-7.567932007088214],[110.17638476474592,-7.568300024833068],[110.17637665466495,-7.568362264167396],[110.17634144356738,-7.568628304659752],[110.17630249457886,-7.568851208714827],[110.17627815590158,-7.568989304396549],[110.1762266330243,-7.569179152052478],[110.17618107275587,-7.569325469327845],[110.1755795831342,-7.569146706859156],[110.17541125596092,-7.569073426546407],[110.17249328430646,-7.568570951993352],[110.17255364161554,-7.568360473624763],[110.17257819736818,-7.568143740461026],[110.17259437026716,-7.567899573645358],[110.172611799761,-7.5674769006118545],[110.17150969472344,-7.56735332758414],[110.17150353466512,-7.5671467186406876],[110.1714975807599,-7.566947024851978],[110.17141458766548,-7.566936070337959],[110.17126062625779,-7.56690839272277],[110.17101490638903,-7.566864220133011],[110.17105446015795,-7.5666804367895715],[110.17109039845896,-7.5665202354511205],[110.17115983860705,-7.566210696376472],[110.17116109563428,-7.566205093691595],[110.17116214239267,-7.566200429459265],[110.17116298986458,-7.566196648526892],[110.17116358865967,-7.566193983252487],[110.17116465828222,-7.566189212334722],[110.17116565293256,-7.566184779550662],[110.17116636509574,-7.566181605268438],[110.17116739905879,-7.566176996185128],[110.17116759561559,-7.566176118306805],[110.17116773457064,-7.566175500809823],[110.17116789547319,-7.56617478205254],[110.17116809842499,-7.566173877956441],[110.17116831143372,-7.566172928655355],[110.17116850798362,-7.566172054394958],[110.1711686725412,-7.566171320268437],[110.17116880967652,-7.566170706385916],[110.17116906016443,-7.56616959163588],[110.17116933808148,-7.5661683530239525],[110.17117050734795,-7.56616314000389],[110.17117639572727,-7.566136890469176],[110.17117853404278,-7.566127360389985],[110.17118689716622,-7.566090079070713],[110.1711896799974,-7.56607767396405],[110.17120832239783,-7.565994573039033],[110.17120942766304,-7.565989648426839],[110.17120134260067,-7.565987154779449],[110.17077267509016,-7.565854901421538],[110.1694431496114,-7.56534926595593],[110.16933292885965,-7.565261589945663],[110.16934867936541,-7.565246145172227],[110.16936790435247,-7.565227293502617],[110.1694094710037,-7.565186533521798],[110.16944505295538,-7.565142719462401],[110.16948289210538,-7.565093577779058],[110.16952693569324,-7.565036379026371],[110.16955164625864,-7.5649985997574305],[110.16957718498851,-7.564959554884802],[110.16960117464441,-7.564922878611295],[110.16963522378445,-7.564858688164873],[110.16967073190979,-7.564788986772366],[110.1697036833599,-7.564723370574071],[110.16972680987787,-7.56467731769543],[110.16976244100327,-7.564630025962951],[110.16980176280633,-7.5645866603709875],[110.16982449219557,-7.564571953349791],[110.16987100536736,-7.564546685645121],[110.16992556985691,-7.564522575618954],[110.16997950906672,-7.564498858749265],[110.17003947121296,-7.564461025329502],[110.17005803115354,-7.564445320857181],[110.17011284076767,-7.564375458967795],[110.17014596403322,-7.56432802675208],[110.17019273356229,-7.5642577533885635],[110.170244505353,-7.5641752745084],[110.1702793208073,-7.564119810082153],[110.17031359859732,-7.564069168230623],[110.17034538485784,-7.564022205590507],[110.17038996596114,-7.563956341001946],[110.1704185830688,-7.563920448610982],[110.1704320820642,-7.563903517060188],[110.17044610606514,-7.563894553183237],[110.17045358680394,-7.563889770943588],[110.1704642112125,-7.563882979497071],[110.17047291438772,-7.563877416300665],[110.17047852108352,-7.563873832552767],[110.17048297249843,-7.563870987378326],[110.1704861279878,-7.563868959199762],[110.17052283094665,-7.563885899394752],[110.17097197736902,-7.5640345800277835],[110.17278387158969,-7.564650657693243],[110.17341818830258,-7.5648205779809885],[110.17350382315567,-7.564843517858026],[110.17363237873458,-7.564877955426195],[110.17386395897357,-7.564948646231126],[110.1742540969555,-7.565053130159034],[110.17454242410207,-7.565097512651111],[110.17467882720365,-7.565108348737216],[110.17475519215706,-7.565114633782836],[110.17496704143495,-7.565132070547764],[110.17499952976121,-7.565134744154979],[110.17506015536372,-7.565139734001458],[110.1750886089318,-7.565142076165109],[110.17509104757752,-7.5651819612334155],[110.17510292789157,-7.565376243093345],[110.17510300878725,-7.565377556555368],[110.17516756852224,-7.566427855541225],[110.17518739932422,-7.566741772088963],[110.17519422870558,-7.5668498779331115],[110.17520095864141,-7.566956415215767],[110.17539567333378,-7.566925411534646],[110.17552308648096,-7.566888858128442],[110.17568408323734,-7.566834344547187],[110.17570213365431,-7.566824869844446],[110.1758046655286,-7.566771048860412],[110.17581871371053,-7.566763674936477],[110.1758509474972,-7.566746754199318],[110.17585888300012,-7.566742588678891],[110.17587964723266,-7.566731689110051],[110.17588026240145,-7.566731366467871],[110.17588266788955,-7.566730020621575],[110.17588984079913,-7.566726007421191],[110.17591182410965,-7.566713708206303],[110.17601954930313,-7.566653437164226],[110.1760652653547,-7.566627859755855],[110.17617234114867,-7.566536250726806],[110.17632706699752,-7.566452628722278],[110.1764673941461,-7.5663786113018485],[110.17670426100399,-7.56630454005056],[110.17670486566486,-7.566310875064734]]]}},{"type":"Feature","properties":{"NAMOBJ":"Kerban","FCODE":"BA03070040","METADATA":"TASWIL1000020230928_DATA_BATAS_DESAKELURAHAN","SRS_ID":"SRGI 2013","KDCPUM":"33.08.11","KDEPUM":"33.08.11.2002","KDPKAB":"33.08","KDPPUM":"33","WADMKC":"Tempuran","WADMKD":"Sumberarum","WADMKK":"Magelang","WADMPR":"Jawa Tengah","DUSUN":"Kerban","Toponimi":"Dusun Kerban","Shape_Leng":3646.39056914,"Shape_Area":446268.892468,"rt":"3","rt_1":3,"F2025":144,"F2026":152,"perubahan":8,"OBJECTID_1":3},"geometry":{"type":"Polygon","coordinates":[[[110.1781162881776,-7.569892354048248],[110.17813751353395,-7.569978957936998],[110.17816587549612,-7.570094685676562],[110.17817270796672,-7.570122562072247],[110.17820510483486,-7.570252246469258],[110.17831314757282,-7.5706847461666085],[110.17832559374483,-7.570734567769937],[110.1783476550053,-7.570822878794058],[110.17837485269307,-7.571125344964273],[110.17840980660344,-7.571514059192104],[110.17842055263414,-7.57173460513724],[110.17842369109998,-7.571799022926026],[110.17838354174724,-7.571772517316708],[110.17823078093862,-7.571686855976788],[110.17801234591566,-7.571574070073631],[110.17787671642145,-7.571532667452644],[110.17777535132352,-7.571511251593395],[110.17764828813227,-7.571516963313715],[110.1775226526819,-7.571534095885848],[110.17730850138354,-7.571588346814157],[110.17711861985934,-7.571642598240742],[110.1769815636761,-7.571711126224961],[110.17681452523637,-7.571775371775504],[110.1766831792663,-7.571808208695599],[110.17659894592786,-7.571801071442095],[110.17651899634893,-7.571783937783714],[110.17647902243841,-7.57177108912916],[110.17638479267674,-7.571722549235517],[110.17622583619931,-7.571642968121032],[110.17606879308457,-7.5715668257978495],[110.17584988211716,-7.571474026138973],[110.17558338264239,-7.5714097813135295],[110.17532298394192,-7.571307665434443],[110.17511121160382,-7.571252937760737],[110.17497558265181,-7.571233902129622],[110.174885163147,-7.571250557922094],[110.17478150473558,-7.571302704937758],[110.17460304513972,-7.571364571817643],[110.17443410309909,-7.571443093699995],[110.17430085279442,-7.571528754387344],[110.17410573735361,-7.57162631201294],[110.17402721471431,-7.571647727842149],[110.1739058629943,-7.571647728437419],[110.17383923729442,-7.571638209071777],[110.17375833613569,-7.571590621008979],[110.17370360830081,-7.571523995277348],[110.17346804140709,-7.571190870918613],[110.17325603886421,-7.570962216350265],[110.1731018636065,-7.570779085477461],[110.17283642474526,-7.570808042521004],[110.17250764783353,-7.570880311454427],[110.17271982422221,-7.5700414526324336],[110.17252732914955,-7.5699420229005785],[110.17224179387269,-7.569751666103129],[110.1721109230864,-7.569629718581604],[110.17198897554769,-7.569492899302604],[110.17192354142304,-7.569376900907379],[110.17190717510262,-7.569283697321676],[110.17190308014791,-7.569104445644606],[110.17191561107776,-7.5689892411656485],[110.17195539978051,-7.5688756432704265],[110.17200350800404,-7.568800352416015],[110.1720359599403,-7.5687609270883005],[110.1720727967748,-7.568735965516961],[110.17215344462072,-7.568701657923165],[110.17224719403698,-7.568697735035815],[110.1723282632446,-7.568718148466644],[110.17240538165264,-7.568761215275761],[110.17249328430646,-7.568570951993352],[110.17541125596092,-7.569073426546407],[110.1755795831342,-7.569146706859156],[110.17618107365237,-7.5693254664486815],[110.17620859366383,-7.569333654285778],[110.17627369211272,-7.569353021999405],[110.17692324893484,-7.569576546591067],[110.17722919212932,-7.569675560031723],[110.17732926126678,-7.569697086585924],[110.1781162881776,-7.569892354048248]]]}},{"type":"Feature","properties":{"NAMOBJ":"Kerban","FCODE":"BA03070040","METADATA":"TASWIL1000020230928_DATA_BATAS_DESAKELURAHAN","SRS_ID":"SRGI 2013","KDCPUM":"33.08.11","KDEPUM":"33.08.11.2002","KDPKAB":"33.08","KDPPUM":"33","WADMKC":"Tempuran","WADMKD":"Sumberarum","WADMKK":"Magelang","WADMPR":"Jawa Tengah","DUSUN":"Kerban","Toponimi":"Dusun Kerban","Shape_Leng":3646.39056914,"Shape_Area":446268.892468,"rt":"2","rt_1":2,"F2025":107,"F2026":107,"perubahan":0,"OBJECTID_1":2},"geometry":{"type":"Polygon","coordinates":[[[110.17618107275587,-7.569325469327845],[110.1762266330243,-7.569179152052478],[110.17627815590158,-7.568989304396549],[110.17630249457886,-7.568851208714827],[110.17634144356738,-7.568628304659752],[110.17637665466495,-7.568362264167396],[110.17638476474592,-7.568300024833068],[110.17643412642889,-7.567932007088214],[110.17654798419503,-7.567959004813034],[110.17658997222416,-7.567799632810346],[110.17670486566486,-7.566310875064734],[110.17679317440513,-7.567237449794692],[110.17688430710818,-7.567237621857207],[110.17710967016401,-7.567276337660714],[110.17736372152366,-7.567362969117131],[110.17761298939851,-7.567476597473851],[110.17757974803175,-7.567482797410604],[110.17755081309048,-7.567494743510377],[110.1775068369137,-7.567512898548262],[110.17744443684713,-7.56753671254274],[110.17735870202371,-7.567558925881533],[110.17717049762234,-7.567527939485861],[110.1771422572845,-7.567522038701873],[110.17713285912146,-7.56752029792311],[110.17712365638657,-7.567516834472628],[110.17711579987478,-7.567511842272953],[110.17711196897179,-7.567508197210964],[110.17710219864286,-7.567500520510742],[110.17708742815161,-7.567492529561548],[110.17708924226092,-7.567551637341189],[110.17712650031267,-7.5676332649113],[110.17722702510923,-7.567702990399653],[110.17725104649232,-7.567719651994058],[110.17734915681282,-7.567834706503395],[110.17752176760497,-7.568045818385643],[110.17755046308679,-7.568105259083084],[110.17762358052123,-7.56825672068485],[110.17771958345199,-7.568455589617997],[110.17773915621679,-7.56849613472476],[110.177747623238,-7.568515239814821],[110.17789915328811,-7.568857179699992],[110.17800332823344,-7.569092259617355],[110.17807218375896,-7.5692476376870195],[110.17811242711599,-7.569379936367198],[110.1780342474365,-7.56939954918735],[110.17802737075789,-7.569427087684035],[110.17803343009172,-7.569554954152682],[110.17803428950158,-7.56957308071363],[110.17808449384668,-7.5696569350634375],[110.17809143526655,-7.569790962726564],[110.1781162881776,-7.569892354048248],[110.17732926126678,-7.569697086585924],[110.17722919212932,-7.569675560031706],[110.17692324893484,-7.569576546591067],[110.17627369211272,-7.569353021999405],[110.17620859366383,-7.569333654285778],[110.17618107275587,-7.569325469327845]]]}}],"bbox":[408363.69020000007,9162952.9424,409367.98390000034,9163829.410800003]}