{"type":"FeatureCollection","features":[{"type":"Feature","properties":{"NAMOBJ":"Kerban","FCODE":"BA03070040","METADATA":"TASWIL1000020230928_DATA_BATAS_DESAKELURAHAN","SRS_ID":"SRGI 2013","KDCPUM":"33.08.11","KDEPUM":"33.08.11.2002","KDPKAB":"33.08","KDPPUM":"33","WADMKC":"Tempuran","WADMKD":"Sumberarum","WADMKK":"Magelang","WADMPR":"Jawa Tengah","DUSUN":"Kerban","Toponimi":"Dusun Kerban","Shape_Leng":3646.39056914,"Shape_Le_1":89.9448022031,"Shape_Area":343.891268019,"KETERANGAN":"2","KET_DETAIL":"Pembuatan Batu Bata","Id":"159","rumah_rt":null},"geometry":{"type":"Polygon","coordinates":[[[110.17509740892025,-7.566393788432345],[110.17511138669443,-7.566571841501659],[110.17500478495623,-7.5665774726754735],[110.17500095131756,-7.566539039526383],[110.17501415581638,-7.566538718093384],[110.17500489095896,-7.566396720292272],[110.17500800409267,-7.566396948685194],[110.17500417603736,-7.566305001677291],[110.1751261447756,-7.566302458379461],[110.17512565631132,-7.566391623174546],[110.17509740892025,-7.566393788432345]]]}},{"type":"Feature","properties":{"NAMOBJ":"Kerban","FCODE":"BA03070040","METADATA":"TASWIL1000020230928_DATA_BATAS_DESAKELURAHAN","SRS_ID":"SRGI 2013","KDCPUM":"33.08.11","KDEPUM":"33.08.11.2002","KDPKAB":"33.08","KDPPUM":"33","WADMKC":"Tempuran","WADMKD":"Sumberarum","WADMKK":"Magelang","WADMPR":"Jawa Tengah","DUSUN":"Kerban","Toponimi":"Dusun Kerban","Shape_Leng":3646.39056914,"Shape_Le_1":80.9369605551,"Shape_Area":300.913245133,"KETERANGAN":"2","KET_DETAIL":"Pembuatan Batu Bata","Id":"160","rumah_rt":null},"geometry":{"type":"Polygon","coordinates":[[[110.17458027828076,-7.566885886695274],[110.17456094342963,-7.566967372006658],[110.17428756599726,-7.566923256500912],[110.17430728724854,-7.566831193103875],[110.17458027828076,-7.566885886695274]]]}},{"type":"Feature","properties":{"NAMOBJ":"Kerban","FCODE":"BA03070040","METADATA":"TASWIL1000020230928_DATA_BATAS_DESAKELURAHAN","SRS_ID":"SRGI 2013","KDCPUM":"33.08.11","KDEPUM":"33.08.11.2002","KDPKAB":"33.08","KDPPUM":"33","WADMKC":"Tempuran","WADMKD":"Sumberarum","WADMKK":"Magelang","WADMPR":"Jawa Tengah","DUSUN":"Kerban","Toponimi":"Dusun Kerban","Shape_Leng":3646.39056914,"Shape_Le_1":66.4066208294,"Shape_Area":159.687092535,"KETERANGAN":"2","KET_DETAIL":"Pembuatan Batu Bata","Id":"161","rumah_rt":null},"geometry":{"type":"Polygon","coordinates":[[[110.17329895278212,-7.566602280852798],[110.17325492570397,-7.566706255568839],[110.17319130460308,-7.566679549266089],[110.17326817597426,-7.566512829795739],[110.17324864745,-7.566503583328992],[110.17326064900524,-7.566473808818789],[110.17328452328596,-7.566481438169783],[110.17327578444021,-7.566509052631774],[110.17332135709428,-7.566526475250166],[110.17329895278212,-7.566602280852798]]]}},{"type":"Feature","properties":{"NAMOBJ":"Kerban","FCODE":"BA03070040","METADATA":"TASWIL1000020230928_DATA_BATAS_DESAKELURAHAN","SRS_ID":"SRGI 2013","KDCPUM":"33.08.11","KDEPUM":"33.08.11.2002","KDPKAB":"33.08","KDPPUM":"33","WADMKC":"Tempuran","WADMKD":"Sumberarum","WADMKK":"Magelang","WADMPR":"Jawa Tengah","DUSUN":"Kerban","Toponimi":"Dusun Kerban","Shape_Leng":3646.39056914,"Shape_Le_1":71.1865924203,"Shape_Area":292.044702897,"KETERANGAN":"2","KET_DETAIL":"Pembuatan Batu Bata","Id":"162","rumah_rt":null},"geometry":{"type":"Polygon","coordinates":[[[110.17611347365872,-7.5668585153154995],[110.1760553308266,-7.566875318180098],[110.17601400161784,-7.566687059878442],[110.17612863172334,-7.566649352425199],[110.17613613736475,-7.566699751735408],[110.17614046860164,-7.566706261342975],[110.17617929475196,-7.566845569003644],[110.17611347365872,-7.5668585153154995]]]}},{"type":"Feature","properties":{"NAMOBJ":"Kerban","FCODE":"BA03070040","METADATA":"TASWIL1000020230928_DATA_BATAS_DESAKELURAHAN","SRS_ID":"SRGI 2013","KDCPUM":"33.08.11","KDEPUM":"33.08.11.2002","KDPKAB":"33.08","KDPPUM":"33","WADMKC":"Tempuran","WADMKD":"Sumberarum","WADMKK":"Magelang","WADMPR":"Jawa Tengah","DUSUN":"Kerban","Toponimi":"Dusun Kerban","Shape_Leng":3646.39056914,"Shape_Le_1":67.4149821469,"Shape_Area":211.11972736,"KETERANGAN":"2","KET_DETAIL":"Pembuatan Batu Bata","Id":"163","rumah_rt":null},"geometry":{"type":"Polygon","coordinates":[[[110.17617929181903,-7.566845569727944],[110.17614046860164,-7.566706261342975],[110.17613613736475,-7.566699751735408],[110.17612863247054,-7.566649355346486],[110.17612324222254,-7.566628281355723],[110.17617926884483,-7.566608917315867],[110.17620802857039,-7.5666529901270545],[110.17620038253378,-7.5666589018534465],[110.1762096659611,-7.566684314561877],[110.17626284470067,-7.566824936414022],[110.17617929181903,-7.566845569727944]]]}},{"type":"Feature","properties":{"NAMOBJ":"Kerban","FCODE":"BA03070040","METADATA":"TASWIL1000020230928_DATA_BATAS_DESAKELURAHAN","SRS_ID":"SRGI 2013","KDCPUM":"33.08.11","KDEPUM":"33.08.11.2002","KDPKAB":"33.08","KDPPUM":"33","WADMKC":"Tempuran","WADMKD":"Sumberarum","WADMKK":"Magelang","WADMPR":"Jawa Tengah","DUSUN":"Kerban","Toponimi":"Dusun Kerban","Shape_Leng":3646.39056914,"Shape_Le_1":62.8096426303,"Shape_Area":198.121008673,"KETERANGAN":"2","KET_DETAIL":"Pembuatan Batu Bata","Id":"164","rumah_rt":null},"geometry":{"type":"Polygon","coordinates":[[[110.17633174827128,-7.566725178195907],[110.176295234887,-7.566743732522577],[110.17628338373626,-7.566730165500679],[110.17626046489974,-7.566737741566652],[110.17619559653225,-7.56661232625393],[110.17620557419303,-7.566605580632193],[110.17618869201415,-7.566560683666235],[110.17624727831233,-7.566533705992273],[110.17633435935154,-7.5666904754018915],[110.17632330682399,-7.5667031525597634],[110.17633174827128,-7.566725178195907]]]}},{"type":"Feature","properties":{"NAMOBJ":"Kerban","FCODE":"BA03070040","METADATA":"TASWIL1000020230928_DATA_BATAS_DESAKELURAHAN","SRS_ID":"SRGI 2013","KDCPUM":"33.08.11","KDEPUM":"33.08.11.2002","KDPKAB":"33.08","KDPPUM":"33","WADMKC":"Tempuran","WADMKD":"Sumberarum","WADMKK":"Magelang","WADMPR":"Jawa Tengah","DUSUN":"Kerban","Toponimi":"Dusun Kerban","Shape_Leng":3646.39056914,"Shape_Le_1":52.7179826203,"Shape_Area":142.664643782,"KETERANGAN":"2","KET_DETAIL":"Pembuatan Batu Bata","Id":"109","rumah_rt":null},"geometry":{"type":"Polygon","coordinates":[[[110.1773608797506,-7.569423388168281],[110.17741880649974,-7.5694365907920185],[110.17742264860374,-7.569428596985158],[110.17747874861219,-7.569444341369235],[110.17746351448045,-7.569501595347085],[110.17745567957179,-7.56950048885013],[110.17744835216331,-7.56952047857105],[110.17740372146514,-7.569511301572751],[110.17739787468365,-7.569519110699206],[110.17730736567714,-7.569491879677293],[110.17731836883789,-7.569449312726115],[110.17732201875597,-7.56944659169413],[110.17732458840372,-7.569436594769982],[110.1773537303946,-7.569445560741182],[110.1773608797506,-7.569423388168281]]]}},{"type":"Feature","properties":{"NAMOBJ":"Kerban","FCODE":"BA03070040","METADATA":"TASWIL1000020230928_DATA_BATAS_DESAKELURAHAN","SRS_ID":"SRGI 2013","KDCPUM":"33.08.11","KDEPUM":"33.08.11.2002","KDPKAB":"33.08","KDPPUM":"33","WADMKC":"Tempuran","WADMKD":"Sumberarum","WADMKK":"Magelang","WADMPR":"Jawa Tengah","DUSUN":"Kerban","Toponimi":"Dusun Kerban","Shape_Leng":3646.39056914,"Shape_Le_1":57.9767819677,"Shape_Area":192.957100799,"KETERANGAN":"2","KET_DETAIL":"Pembuatan Batu Bata","Id":"104","rumah_rt":null},"geometry":{"type":"Polygon","coordinates":[[[110.1770702599714,-7.56870478039729],[110.17704759063598,-7.5687967976971615],[110.17698241123239,-7.568781899001827],[110.17688168349623,-7.568751011114382],[110.17691173648913,-7.568662144053871],[110.17700308771651,-7.5686901619518165],[110.1770702599714,-7.56870478039729]]]}}],"bbox":[408789.659500001,9163206.034500003,409263.24340000097,9163561.335]}